H1 CPF  1  DLR 2021 05 11 10  6312 technosat            
H2  1704205 6203    42829 2021 05 11 00 00 00 2021 05 18 00 00 00    60 1 1  0 0 0
H9
10 0 59350  43200.000000  0       1205189.771         35500.679      -6866552.767
10 0 59350  43260.000000  0       1505098.889       -303265.544      -6800700.459
10 0 59350  43320.000000  0       1795728.392       -643343.976      -6706129.685
10 0 59350  43380.000000  0       2075854.483       -983222.242      -6583238.144
10 0 59350  43440.000000  0       2344310.215      -1321378.044      -6432542.095
10 0 59350  43500.000000  0       2599990.314      -1656285.860      -6254674.262
10 0 59350  43560.000000  0       2841855.700      -1986423.695      -6050381.430
10 0 59350  43620.000000  0       3068937.774      -2310279.972      -5820521.635
10 0 59350  43680.000000  0       3280342.443      -2626360.532      -5566060.839
10 0 59350  43740.000000  0       3475253.776      -2933195.621      -5288069.020
10 0 59350  43800.000000  0       3652937.216      -3229346.768      -4987715.792
10 0 59350  43860.000000  0       3812742.393      -3513413.553      -4666265.652
10 0 59350  43920.000000  0       3954105.567      -3784040.251      -4325072.867
10 0 59350  43980.000000  0       4076551.720      -4039922.386      -3965575.995
10 0 59350  44040.000000  0       4179696.253      -4279813.158      -3589291.984
10 0 59350  44100.000000  0       4263246.251      -4502529.642      -3197809.864
10 0 59350  44160.000000  0       4327001.336      -4706958.745      -2792784.093
10 0 59350  44220.000000  0       4370854.076      -4892062.907      -2375927.581
10 0 59350  44280.000000  0       4394789.880      -5056885.536      -1949004.379
10 0 59350  44340.000000  0       4398886.420      -5200556.020      -1513822.098
10 0 59350  44400.000000  0       4383312.675      -5322294.336      -1072224.144
10 0 59350  44460.000000  0       4348327.493      -5421415.295       -626081.716
10 0 59350  44520.000000  0       4294277.687      -5497332.310       -177285.683
10 0 59350  44580.000000  0       4221595.709      -5549560.713        272261.608
10 0 59350  44640.000000  0       4130796.935      -5577720.631        720654.609
10 0 59350  44700.000000  0       4022476.538      -5581539.309       1165992.925
10 0 59350  44760.000000  0       3897305.972      -5560852.866       1606389.634
10 0 59350  44820.000000  0       3756029.018      -5515607.510       2039979.472
10 0 59350  44880.000000  0       3599457.542      -5445860.276       2464926.835
10 0 59350  44940.000000  0       3428466.984      -5351779.274       2879433.674
10 0 59350  45000.000000  0       3243991.560      -5233643.357       3281747.249
10 0 59350  45060.000000  0       3047019.182      -5091841.201       3670167.593
10 0 59350  45120.000000  0       2838586.233      -4926869.928       4043054.665
10 0 59350  45180.000000  0       2619772.149      -4739333.223       4398835.293
10 0 59350  45240.000000  0       2391693.804      -4529938.925       4736009.764
10 0 59350  45300.000000  0       2155499.800      -4299496.124       5053157.983
10 0 59350  45360.000000  0       1912364.739      -4048911.879       5348945.319
10 0 59350  45420.000000  0       1663483.350      -3779187.420       5622128.122
10 0 59350  45480.000000  0       1410064.594      -3491413.905       5871558.716
10 0 59350  45540.000000  0       1153325.805      -3186767.832       6096189.950
10 0 59350  45600.000000  0        894486.869      -2866506.117       6295079.308
10 0 59350  45660.000000  0        634764.485      -2531960.819       6467392.630
10 0 59350  45720.000000  0        375366.491      -2184533.511       6612407.328
10 0 59350  45780.000000  0        117486.364      -1825689.439       6729515.160
10 0 59350  45840.000000  0       -137702.174      -1456951.397       6818224.674
10 0 59350  45900.000000  0       -389050.427      -1079893.243       6878163.162
10 0 59350  45960.000000  0       -635439.791       -696133.223       6909078.076
10 0 59350  46020.000000  0       -875786.658       -307327.126       6910838.036
10 0 59350  46080.000000  0      -1109047.142         84838.779       6883433.370
10 0 59350  46140.000000  0      -1334221.550        478654.954       6826976.170
10 0 59350  46200.000000  0      -1550358.607        872395.943       6741699.889
10 0 59350  46260.000000  0      -1756559.455       1264327.811       6627958.505
10 0 59350  46320.000000  0      -1951981.405       1652715.683       6486225.207
10 0 59350  46380.000000  0      -2135841.376       2035831.348       6317090.607
10 0 59350  46440.000000  0      -2307419.065       2411960.889       6121260.534
10 0 59350  46500.000000  0      -2466059.799       2779412.372       5899553.335
10 0 59350  46560.000000  0      -2611177.075       3136523.427       5652896.717
10 0 59350  46620.000000  0      -2742254.832       3481668.829       5382324.220
10 0 59350  46680.000000  0      -2858849.393       3813268.037       5088971.141
10 0 59350  46740.000000  0      -2960591.015       4129792.559       4774070.010
10 0 59350  46800.000000  0      -3047185.101       4429773.179       4438945.656
10 0 59350  46860.000000  0      -3118413.048       4711807.005       4085009.834
10 0 59350  46920.000000  0      -3174132.732       4974564.283       3713755.421
10 0 59350  46980.000000  0      -3214278.582       5216794.920       3326750.200
10 0 59350  47040.000000  0      -3238861.287       5437334.666       2925630.283
10 0 59350  47100.000000  0      -3247967.129       5635110.963       2512093.217
10 0 59350  47160.000000  0      -3241756.956       5809148.375       2087890.736
10 0 59350  47220.000000  0      -3220464.755       5958573.596       1654821.286
10 0 59350  47280.000000  0      -3184395.841       6082620.074       1214722.315
10 0 59350  47340.000000  0      -3133924.712       6180632.135        769462.290
10 0 59350  47400.000000  0      -3069492.529       6252068.573        320932.532
10 0 59350  47460.000000  0      -2991604.280       6296505.686       -128961.078
10 0 59350  47520.000000  0      -2900825.660       6313639.752       -578306.490
10 0 59350  47580.000000  0      -2797779.604       6303288.923      -1025193.964
10 0 59350  47640.000000  0      -2683142.510       6265394.485      -1467724.581
10 0 59350  47700.000000  0      -2557640.135       6200021.363      -1904018.708
10 0 59350  47760.000000  0      -2422043.287       6107358.014      -2332224.117
10 0 59350  47820.000000  0      -2277163.362       5987715.851      -2750523.997
10 0 59350  47880.000000  0      -2123847.722       5841528.083      -3157144.781
10 0 59350  47940.000000  0      -1962974.944       5669347.989      -3550363.817
10 0 59350  48000.000000  0      -1795449.939       5471846.523      -3928516.788
10 0 59350  48060.000000  0      -1622199.012       5249809.362      -4290004.748
10 0 59350  48120.000000  0      -1444164.869       5004133.480      -4633300.809
10 0 59350  48180.000000  0      -1262301.618       4735823.266      -4956956.487
10 0 59350  48240.000000  0      -1077569.773       4445986.150      -5259607.733
10 0 59350  48300.000000  0       -890931.265       4135827.758      -5539980.555
10 0 59350  48360.000000  0       -703344.501       3806646.615      -5796896.246
10 0 59350  48420.000000  0       -515759.512       3459828.422      -6029276.131
10 0 59350  48480.000000  0       -329113.210       3096839.954      -6236145.858
10 0 59350  48540.000000  0       -144324.791       2719222.638      -6416639.156
10 0 59350  48600.000000  0         37708.674       2328585.917      -6570001.156
10 0 59350  48660.000000  0        216116.490       1926600.351      -6695591.335
10 0 59350  48720.000000  0        390058.412       1514990.404      -6792886.035
10 0 59350  48780.000000  0        558728.538       1095526.990      -6861480.400
10 0 59350  48840.000000  0        721358.977        670019.927      -6901089.860
10 0 59350  48900.000000  0        877223.284        240310.156      -6911551.238
10 0 59350  48960.000000  0       1025639.639       -191738.215      -6892823.297
10 0 59350  49020.000000  0       1165973.762       -624245.905      -6844986.772
10 0 59350  49080.000000  0       1297641.580      -1055326.488      -6768243.993
10 0 59350  49140.000000  0       1420111.600      -1483094.493      -6662918.068
10 0 59350  49200.000000  0       1532907.039      -1905673.507      -6529451.647
10 0 59350  49260.000000  0       1635607.711      -2321204.311      -6368405.223
10 0 59350  49320.000000  0       1727851.577      -2727852.984      -6180454.975
10 0 59350  49380.000000  0       1809336.003      -3123819.012      -5966390.226
10 0 59350  49440.000000  0       1879818.730      -3507343.409      -5727110.362
10 0 59350  49500.000000  0       1939118.531      -3876716.623      -5463621.183
10 0 59350  49560.000000  0       1987115.554      -4230286.200      -5177030.818
10 0 59350  49620.000000  0       2023751.345      -4566464.237      -4868545.289
10 0 59350  49680.000000  0       2049028.583      -4883734.640      -4539463.678
10 0 59350  49740.000000  0       2063010.512      -5180660.169      -4191172.878
10 0 59350  49800.000000  0       2065820.042      -5455889.215      -3825141.910
10 0 59350  49860.000000  0       2057638.524      -5708162.205      -3442915.841
10 0 59350  49920.000000  0       2038704.241      -5936317.638      -3046109.350
10 0 59350  49980.000000  0       2009310.586      -6139297.735      -2636399.968
10 0 59350  50040.000000  0       1969803.932      -6316153.636      -2215520.907
10 0 59350  50100.000000  0       1920581.237      -6466049.972      -1785253.626
10 0 59350  50160.000000  0       1862087.398      -6588269.013      -1347420.311
10 0 59350  50220.000000  0       1794812.410      -6682214.500       -903876.040
10 0 59350  50280.000000  0       1719288.250      -6747414.675       -456500.544
10 0 59350  50340.000000  0       1636085.481      -6783524.529         -7190.054
99
